MONITOR-3 (RS58S)       
1 57180U 23091Q   26168.59126509  .00008883  00000+0  32860-3 0  9994
2 57180  97.5080 232.0402 0013102  99.5742 260.6978 15.27848846164358
MONITOR-4 (RS57S)       
1 57182U 23091S   26168.57029959  .00008684  00000+0  32050-3 0  9995
2 57182  97.5074 231.9905 0013093 100.0034 260.2683 15.27934246164359
MONITOR-2 (RS39S)       
1 57184U 23091U   26168.57620598  .00004261  00000+0  20706-3 0  9995
2 57184  97.5070 226.8566 0012755 109.8954 250.3656 15.18913614164014
SVYATOBOR 1 (RS60S)     
1 57187U 23091X   26168.51817445  .00007438  00000+0  28627-3 0  9990
2 57187  97.5087 232.3369 0010869  93.4386 266.8096 15.26620149164364
HORS 1                  
1 57188U 23091Y   26168.56923239  .00007125  00000+0  27354-3 0  9994
2 57188  97.5064 232.1506 0010330  93.2553 266.9868 15.26727795164372
VIZARD-METEO (RS38S)    
1 57189U 23091Z   26168.60363230  .00014218  00000+0  40680-3 0  9997
2 57189  97.5090 238.0972 0008234  76.3939 283.8221 15.36037975164752
SITRO-AIS 6 (CHIRKIN)   
1 57192U 23091AC  26168.57326832  .00008190  00000+0  32116-3 0  9991
2 57192  97.5065 231.5934 0013107 105.3476 254.9211 15.25941276164347
SITRO-AIS 8 (ANOKHIN)   
1 57193U 23091AD  26168.47908043  .00011052  00000+0  35784-3 0  9996
2 57193  97.5053 233.9710 0011785  99.1964 261.0611 15.32141789164493
SITRO-AIS 7 (FARTUSHNIY)
1 57194U 23091AE  26168.57649616  .00008165  00000+0  32322-3 0  9992
2 57194  97.5062 231.4215 0012951 106.1893 254.0771 15.25629427164337
AVION KALUGA 650        
1 57195U 23091AF  26168.55708754  .00004491  00000+0  20925-3 0  9994
2 57195  97.5087 228.1320 0011897 108.2456 252.0075 15.20356118164087
HORS 2                  
1 57196U 23091AG  26168.55613864  .00010471  00000+0  34201-3 0  9999
2 57196  97.5086 235.5907 0009347  86.7883 273.4428 15.31899396164587
A-SEANSAT-PG1           
1 57197U 23091AH  26168.59713365  .00014991  00000+0  41610-3 0  9994
2 57197  97.5078 238.1872 0008256  83.8194 276.3990 15.36972139164779
SITRO-AIS 10 (BURDAEV)  
1 57199U 23091AK  26168.57443485  .00016534  00000+0  43486-3 0  9995
2 57199  97.5079 239.1259 0007470  79.3796 280.8290 15.38625011164822
SITRO-AIS 9 (SHCHUKIN)  
1 57201U 23091AM  26168.60095856  .00015994  00000+0  42750-3 0  9990
2 57201  97.5077 238.8827 0007741  79.2034 281.0082 15.38133122164814
UTMN 2 (RS27S)          
1 57203U 23091AP  26168.58332005  .00010571  00000+0  34355-3 0  9997
2 57203  97.5085 235.8097 0009240  82.6541 277.5750 15.32060607164608
SITRO-AIS 12 (SMIRENNIY)
1 57204U 23091AQ  26168.46141379  .00015409  00000+0  40820-3 0  9996
2 57204  97.5091 239.2070 0007284  74.8279 285.3771 15.38421469164818
SITRO-AIS 11 (SHEFFER)  
1 57208U 23091AU  26168.60480448  .00016415  00000+0  42864-3 0  9997
2 57208  97.5088 239.6009 0007128  74.2253 285.9778 15.38850900164850
H2SAT (HEINRICH HERTZ)  
1 57213U 23093A   26167.91989407 -.00000001  00000+0  00000+0 0  9994
2 57213   0.0563 109.0315 0000837  87.5042  40.5173  1.00269156 10918
KUZGTU 1 (RS47S)        
1 57217U 23091AV  26168.42655446  .00008893  00000+0  30945-3 0  9997
2 57217  97.5062 232.9090 0012293  97.3043 262.9595 15.29865909164419
QIANKUN-1               
1 57422U 23103B   26166.36556735  .00020233  18381-5  23233-4 0  9993
2 57422  96.1468 211.3446 0029378 145.9035 214.4147 16.08420909167009
FENGYUN 3F              
1 57490U 23111A   26168.60840613  .00000034  00000+0  36616-4 0  9996
2 57490  98.6836 238.6093 0001594  93.1477 266.9882 14.19939173148920
HJ-2F                   
1 57519U 23116A   26168.64684862  .00006024  00000+0  26400-3 0  9993
2 57519  97.3840 173.8572 0009826  50.8542 309.3566 15.22325453158820
XRISM                   
1 57800U 23137A   26167.99267058  .00004236  00000+0  23198-3 0  9994
2 57800  31.0033   0.8620 0007957 321.8772  38.1304 15.12465505152838
METEOR-M2 4             
1 59051U 24039A   26168.60548563  .00000001  00000+0  20069-4 0  9999
2 59051  98.7010 127.8982 0007315 159.7728 200.3741 14.22429546119321
GRBBETA                 
1 60237U 24128C   26168.48551437  .00002424  00000+0  17435-3 0  9999
2 60237  61.9882 215.2195 0040617 134.7304 225.7108 15.06640908106314
TRANSPORTER-11 OBJECT A 
1 60468U 24149A   26168.15349817  .00006815  00000+0  21690-3 0  9995
2 60468  97.3733 248.0832 0002846 193.5302 166.5864 15.32905708102052
WARATAH SEED-1          
1 60469U 24149B   26168.24139102  .00010461  00000+0  30118-3 0  9997
2 60469  97.3692 248.8158 0001551 177.9562 182.1689 15.35946313102129
PHISAT 2                
1 60470U 24149C   26168.11264973  .00006833  00000+0  23023-3 0  9995
2 60470  97.3758 247.3290 0001056 173.2275 186.8980 15.31066121101989
LEMUR-2-TOMATOKECHUP    
1 60471U 24149D   26167.97704351  .00009737  00000+0  27977-3 0  9996
2 60471  97.3803 250.0230 0001440 175.8194 184.3062 15.36030247102138
