OBJECT_NAME,OBJECT_ID,EPOCH,MEAN_MOTION,ECCENTRICITY,INCLINATION,RA_OF_ASC_NODE,ARG_OF_PERICENTER,MEAN_ANOMALY,EPHEMERIS_TYPE,CLASSIFICATION_TYPE,NORAD_CAT_ID,ELEMENT_SET_NO,REV_AT_EPOCH,BSTAR,MEAN_MOTION_DOT,MEAN_MOTION_DDOT
MONITOR-3 (RS58S),2023-091Q,2026-06-17T14:11:25.303776,15.27848846,.00131026,97.5080,232.0402,99.5742,260.6978,0,U,57180,999,16435,.32860379E-3,.8883E-4,0
MONITOR-4 (RS57S),2023-091S,2026-06-17T13:41:13.884576,15.27934246,.00130932,97.5074,231.9905,100.0034,260.2683,0,U,57182,999,16435,.32049941E-3,.8684E-4,0
MONITOR-2 (RS39S),2023-091U,2026-06-17T13:49:44.196672,15.18913614,.00127558,97.5070,226.8566,109.8954,250.3656,0,U,57184,999,16401,.20705739E-3,.4261E-4,0
SVYATOBOR 1 (RS60S),2023-091X,2026-06-17T12:26:10.272480,15.26620149,.00108693,97.5087,232.3369,93.4386,266.8096,0,U,57187,999,16436,.28627212E-3,.7438E-4,0
HORS 1,2023-091Y,2026-06-17T13:39:41.678496,15.26727795,.00103301,97.5064,232.1506,93.2553,266.9868,0,U,57188,999,16437,.27354358E-3,.7125E-4,0
VIZARD-METEO (RS38S),2023-091Z,2026-06-17T14:29:13.830720,15.36037975,.00082344,97.5090,238.0972,76.3939,283.8221,0,U,57189,999,16475,.40679662E-3,.14218E-3,0
SITRO-AIS 6 (CHIRKIN),2023-091AC,2026-06-17T13:45:30.382848,15.25941276,.0013107,97.5065,231.5934,105.3476,254.9211,0,U,57192,999,16434,.32115736E-3,.819E-4,0
SITRO-AIS 8 (ANOKHIN),2023-091AD,2026-06-17T11:29:52.549152,15.32141789,.00117858,97.5053,233.9710,99.1964,261.0611,0,U,57193,999,16449,.35783976E-3,.11052E-3,0
SITRO-AIS 7 (FARTUSHNIY),2023-091AE,2026-06-17T13:50:09.268224,15.25629427,.00129519,97.5062,231.4215,106.1893,254.0771,0,U,57194,999,16433,.32322003E-3,.8165E-4,0
AVION KALUGA 650,2023-091AF,2026-06-17T13:22:12.363456,15.20356118,.00118979,97.5087,228.1320,108.2456,252.0075,0,U,57195,999,16408,.2092487E-3,.4491E-4,0
HORS 2,2023-091AG,2026-06-17T13:20:50.378496,15.31899396,.0009347,97.5086,235.5907,86.7883,273.4428,0,U,57196,999,16458,.34201455E-3,.10471E-3,0
A-SEANSAT-PG1,2023-091AH,2026-06-17T14:19:52.347360,15.36972139,.00082567,97.5078,238.1872,83.8194,276.3990,0,U,57197,999,16477,.41609674E-3,.14991E-3,0
SITRO-AIS 10 (BURDAEV),2023-091AK,2026-06-17T13:47:11.171040,15.38625011,.00074706,97.5079,239.1259,79.3796,280.8290,0,U,57199,999,16482,.43486202E-3,.16534E-3,0
SITRO-AIS 9 (SHCHUKIN),2023-091AM,2026-06-17T14:25:22.819584,15.38133122,.00077419,97.5077,238.8827,79.2034,281.0082,0,U,57201,999,16481,.4274959E-3,.15994E-3,0
UTMN 2 (RS27S),2023-091AP,2026-06-17T13:59:58.852320,15.32060607,.00092401,97.5085,235.8097,82.6541,277.5750,0,U,57203,999,16460,.34354677E-3,.10571E-3,0
SITRO-AIS 12 (SMIRENNIY),2023-091AQ,2026-06-17T11:04:26.151456,15.38421469,.00072842,97.5091,239.2070,74.8279,285.3771,0,U,57204,999,16481,.40819667E-3,.15409E-3,0
SITRO-AIS 11 (SHEFFER),2023-091AU,2026-06-17T14:30:55.107072,15.38850900,.00071288,97.5088,239.6009,74.2253,285.9778,0,U,57208,999,16485,.42863551E-3,.16415E-3,0
H2SAT (HEINRICH HERTZ),2023-093A,2026-06-16T22:04:38.847648,1.00269156,.0000837,0.0563,109.0315,87.5042,40.5173,0,U,57213,999,1091,0,-.1E-7,0
KUZGTU 1 (RS47S),2023-091AV,2026-06-17T10:14:14.305344,15.29865909,.00122937,97.5062,232.9090,97.3043,262.9595,0,U,57217,999,16441,.30945314E-3,.8893E-4,0
QIANKUN-1,2023-103B,2026-06-15T08:46:25.019040,16.08420909,.00293788,96.1468,211.3446,145.9035,214.4147,0,U,57422,999,16700,.23232943E-4,.20233E-3,.1838074E-5
FENGYUN 3F,2023-111A,2026-06-17T14:36:06.289632,14.19939173,.00015949,98.6836,238.6093,93.1477,266.9882,0,U,57490,999,14892,.36615901E-4,.34E-6,0
HJ-2F,2023-116A,2026-06-17T15:31:27.720768,15.22325453,.00098266,97.3840,173.8572,50.8542,309.3566,0,U,57519,999,15882,.26400076E-3,.6024E-4,0
XRISM,2023-137A,2026-06-16T23:49:26.738112,15.12465505,.00079577,31.0033,0.8620,321.8772,38.1304,0,U,57800,999,15283,.23197746E-3,.4236E-4,0
METEOR-M2 4,2024-039A,2026-06-17T14:31:53.958432,14.22429546,.00073155,98.7010,127.8982,159.7728,200.3741,0,U,59051,999,11932,.20069238E-4,.1E-7,0
GRBBETA,2024-128C,2026-06-17T11:39:08.441568,15.06640908,.00406176,61.9882,215.2195,134.7304,225.7108,0,U,60237,999,10631,.17434717E-3,.2424E-4,0
TRANSPORTER-11 OBJECT A,2024-149A,2026-06-17T03:41:02.241888,15.32905708,.00028463,97.3733,248.0832,193.5302,166.5864,0,U,60468,999,10205,.21689672E-3,.6815E-4,0
WARATAH SEED-1,2024-149B,2026-06-17T05:47:36.184128,15.35946313,.00015514,97.3692,248.8158,177.9562,182.1689,0,U,60469,999,10212,.301181E-3,.10461E-3,0
PHISAT 2,2024-149C,2026-06-17T02:42:12.936672,15.31066121,.0001056,97.3758,247.3290,173.2275,186.8980,0,U,60470,999,10198,.23022845E-3,.6833E-4,0
LEMUR-2-TOMATOKECHUP,2024-149D,2026-06-16T23:26:56.559264,15.36030247,.00014401,97.3803,250.0230,175.8194,184.3062,0,U,60471,999,10213,.2797748E-3,.9737E-4,0
